LEMUR-2-MONSON          
1 42839U 17042Q   26068.46195507  .00017976  00000+0  72201-3 0  9993
2 42839  97.4034 249.9036 0006619 352.7862   7.3279 15.24988734472959
STARLINK-30265          
1 57646U 23122Q   26068.11230251  .00000978  00000+0  46145-4 0  9992
2 57646  43.0004  95.3336 0001225 290.4065  69.6655 15.26741509142123
